STARLINK-3312           
1 50850U 22001AZ  26068.47365004 -.00000754  00000+0 -29322-4 0  9993
2 50850  53.2172 140.0908 0001284  96.2045 263.9093 15.08837152231337
DISKSAT D               
1 67221U 25305C   26068.55257179  .00011599  00000+0  76841-3 0  9999
2 67221  45.0023 251.6339 0003712 319.2749  40.7848 15.07416577 12277
